start=new Date('2022-06-23T00:00:00.000Z').valueOf();
sats=[{"MEAN_MOTION_DDOT":"0.0000000000000","NORAD_CAT_ID":"49745","OBJECT_TYPE":"PAYLOAD","TLE_LINE1":"1 49745U 21115X   22173.82549367  .00000376  00000-0  41788-4 0  9996","TLE_LINE2":"2 49745  53.2152 115.8439 0003015  55.1160 305.0116 15.08834866 30847","GP_ID":"206651037","EPHEMERIS_TYPE":"0","TIME_SYSTEM":"UTC","REV_AT_EPOCH":"3084","DECAY_DATE":null,"SEMIMAJOR_AXIS":"6917.896","OBJECT_ID":"2021-115X","SITE":"AFETR","LAUNCH_DATE":"2021-12-02","ARG_OF_PERICENTER":"55.1160","OBJECT_NAME":"STARLINK-3241","RCS_SIZE":"LARGE","CENTER_NAME":"EARTH","MEAN_MOTION":"15.08834866","INCLINATION":"53.2152","PERIOD":"95.438","ECCENTRICITY":"0.00030150","FILE":"3500001","CLASSIFICATION_TYPE":"U","APOAPSIS":"541.847","MEAN_MOTION_DOT":"0.00000376","MEAN_ELEMENT_THEORY":"SGP4","EPOCH":"2022-06-22T19:48:42.653088","COUNTRY_CODE":"US","PERIAPSIS":"537.675","RA_OF_ASC_NODE":"115.8439","BSTAR":"0.00004178800000","MEAN_ANOMALY":"305.0116","ELEMENT_SET_NO":"999","REF_FRAME":"TEME"},{"EPOCH":"2022-06-22T13:53:39.119136","COUNTRY_CODE":"US","PERIAPSIS":"538.080","MEAN_ELEMENT_THEORY":"SGP4","MEAN_MOTION_DOT":"0.00000714","APOAPSIS":"541.405","MEAN_ANOMALY":"305.2869","ELEMENT_SET_NO":"999","REF_FRAME":"TEME","BSTAR":"0.00006294600000","RA_OF_ASC_NODE":"116.9478","CENTER_NAME":"EARTH","MEAN_MOTION":"15.08840915","OBJECT_NAME":"STARLINK-3233","RCS_SIZE":"LARGE","ARG_OF_PERICENTER":"54.8348","LAUNCH_DATE":"2021-12-02","CLASSIFICATION_TYPE":"U","FILE":"3500001","ECCENTRICITY":"0.00024030","INCLINATION":"53.2154","PERIOD":"95.437","OBJECT_ID":"2021-115Y","DECAY_DATE":null,"SEMIMAJOR_AXIS":"6917.878","REV_AT_EPOCH":"3080","SITE":"AFETR","OBJECT_TYPE":"PAYLOAD","NORAD_CAT_ID":"49746","MEAN_MOTION_DDOT":"0.0000000000000","TIME_SYSTEM":"UTC","GP_ID":"206649285","EPHEMERIS_TYPE":"0","TLE_LINE2":"2 49746  53.2154 116.9478 0002403  54.8348 305.2869 15.08840915 30804","TLE_LINE1":"1 49746U 21115Y   22173.57892499  .00000714  00000-0  62946-4 0  9991"},{"MEAN_MOTION_DOT":"0.00000029","APOAPSIS":"541.499","EPOCH":"2022-06-22T13:37:45.516288","PERIAPSIS":"538.026","COUNTRY_CODE":"US","MEAN_ELEMENT_THEORY":"SGP4","MEAN_ANOMALY":"303.0631","REF_FRAME":"TEME","ELEMENT_SET_NO":"999","RA_OF_ASC_NODE":"116.9827","BSTAR":"0.00001994000000","ARG_OF_PERICENTER":"57.0602","LAUNCH_DATE":"2021-12-02","CENTER_NAME":"EARTH","MEAN_MOTION":"15.08834464","OBJECT_NAME":"STARLINK-3247","RCS_SIZE":"LARGE","INCLINATION":"53.2138","PERIOD":"95.438","FILE":"3500001","CLASSIFICATION_TYPE":"U","ECCENTRICITY":"0.00025100","REV_AT_EPOCH":"3080","OBJECT_ID":"2021-115Z","SEMIMAJOR_AXIS":"6917.897","DECAY_DATE":null,"SITE":"AFETR","MEAN_MOTION_DDOT":"0.0000000000000","OBJECT_TYPE":"PAYLOAD","NORAD_CAT_ID":"49747","TLE_LINE2":"2 49747  53.2138 116.9827 0002510  57.0602 303.0631 15.08834464 30807","TLE_LINE1":"1 49747U 21115Z   22173.56788792  .00000029  00000-0  19940-4 0  9996","TIME_SYSTEM":"UTC","EPHEMERIS_TYPE":"0","GP_ID":"206649535"},{"TLE_LINE2":"2 49748  53.2203 119.2899 0002836  55.7278 304.3982 15.08852379 30731","TLE_LINE1":"1 49748U 21115AA  22173.05635804  .00000818  00000-0  69518-4 0  9998","TIME_SYSTEM":"UTC","EPHEMERIS_TYPE":"0","GP_ID":"206620906","MEAN_MOTION_DDOT":"0.0000000000000","OBJECT_TYPE":"PAYLOAD","NORAD_CAT_ID":"49748","SITE":"AFETR","REV_AT_EPOCH":"3073","OBJECT_ID":"2021-115AA","SEMIMAJOR_AXIS":"6917.843","DECAY_DATE":null,"INCLINATION":"53.2203","PERIOD":"95.437","FILE":"3499789","CLASSIFICATION_TYPE":"U","ECCENTRICITY":"0.00028360","ARG_OF_PERICENTER":"55.7278","LAUNCH_DATE":"2021-12-02","CENTER_NAME":"EARTH","MEAN_MOTION":"15.08852379","OBJECT_NAME":"STARLINK-3248","RCS_SIZE":"LARGE","MEAN_ANOMALY":"304.3982","REF_FRAME":"TEME","ELEMENT_SET_NO":"999","BSTAR":"0.00006951800000","RA_OF_ASC_NODE":"119.2899","MEAN_MOTION_DOT":"0.00000818","APOAPSIS":"541.669","EPOCH":"2022-06-22T01:21:09.334656","PERIAPSIS":"537.746","COUNTRY_CODE":"US","MEAN_ELEMENT_THEORY":"SGP4"},{"SITE":"AFETR","REV_AT_EPOCH":"3080","DECAY_DATE":null,"SEMIMAJOR_AXIS":"6917.887","OBJECT_ID":"2021-115AB","TLE_LINE1":"1 49749U 21115AB  22173.57524826  .00000294  00000-0  36613-4 0  9995","TLE_LINE2":"2 49749  53.2167 116.9571 0002406  54.5948 305.5268 15.08837852 30803","EPHEMERIS_TYPE":"0","GP_ID":"206650537","TIME_SYSTEM":"UTC","MEAN_MOTION_DDOT":"0.0000000000000","NORAD_CAT_ID":"49749","OBJECT_TYPE":"PAYLOAD","BSTAR":"0.00003661300000","RA_OF_ASC_NODE":"116.9571","MEAN_ANOMALY":"305.5268","ELEMENT_SET_NO":"999","REF_FRAME":"TEME","APOAPSIS":"541.416","MEAN_MOTION_DOT":"0.00000294","MEAN_ELEMENT_THEORY":"SGP4","EPOCH":"2022-06-22T13:48:21.449664","COUNTRY_CODE":"US","PERIAPSIS":"538.088","INCLINATION":"53.2167","PERIOD":"95.438","ECCENTRICITY":"0.00024060","FILE":"3500001","CLASSIFICATION_TYPE":"U","LAUNCH_DATE":"2021-12-02","ARG_OF_PERICENTER":"54.5948","OBJECT_NAME":"STARLINK-3250","RCS_SIZE":"LARGE","CENTER_NAME":"EARTH","MEAN_MOTION":"15.08837852"},{"MEAN_ANOMALY":"308.4916","REF_FRAME":"TEME","ELEMENT_SET_NO":"999","BSTAR":"0.00001654700000","RA_OF_ASC_NODE":"118.3678","MEAN_MOTION_DOT":"-0.00000025","APOAPSIS":"542.020","EPOCH":"2022-06-22T06:17:55.921920","COUNTRY_CODE":"US","PERIAPSIS":"537.485","MEAN_ELEMENT_THEORY":"SGP4","INCLINATION":"53.2196","PERIOD":"95.438","CLASSIFICATION_TYPE":"U","FILE":"3499789","ECCENTRICITY":"0.00032780","ARG_OF_PERICENTER":"51.6371","LAUNCH_DATE":"2021-12-02","CENTER_NAME":"EARTH","MEAN_MOTION":"15.08837647","RCS_SIZE":"LARGE","OBJECT_NAME":"STARLINK-3236","SITE":"AFETR","REV_AT_EPOCH":"3076","OBJECT_ID":"2021-115AC","DECAY_DATE":null,"SEMIMAJOR_AXIS":"6917.888","TLE_LINE2":"2 49750  53.2196 118.3678 0003278  51.6371 308.4916 15.08837647 30766","TLE_LINE1":"1 49750U 21115AC  22173.26245280 -.00000025  00000-0  16547-4 0  9994","TIME_SYSTEM":"UTC","GP_ID":"206620405","EPHEMERIS_TYPE":"0","MEAN_MOTION_DDOT":"0.0000000000000","OBJECT_TYPE":"PAYLOAD","NORAD_CAT_ID":"49750"},{"APOAPSIS":"541.627","MEAN_MOTION_DOT":"0.00000320","MEAN_ELEMENT_THEORY":"SGP4","COUNTRY_CODE":"US","PERIAPSIS":"537.882","EPOCH":"2022-06-22T13:58:57.262944","BSTAR":"0.00003824500000","RA_OF_ASC_NODE":"116.9227","ELEMENT_SET_NO":"999","REF_FRAME":"TEME","MEAN_ANOMALY":"310.5524","LAUNCH_DATE":"2021-12-02","ARG_OF_PERICENTER":"49.5704","OBJECT_NAME":"STARLINK-3229","RCS_SIZE":"LARGE","CENTER_NAME":"EARTH","MEAN_MOTION":"15.08837009","PERIOD":"95.438","INCLINATION":"53.2208","ECCENTRICITY":"0.00027070","FILE":"3500001","CLASSIFICATION_TYPE":"U","REV_AT_EPOCH":"3081","SEMIMAJOR_AXIS":"6917.890","DECAY_DATE":null,"OBJECT_ID":"2021-115AD","SITE":"AFETR","MEAN_MOTION_DDOT":"0.0000000000000","NORAD_CAT_ID":"49751","OBJECT_TYPE":"PAYLOAD","TLE_LINE1":"1 49751U 21115AD  22173.58260721  .00000320  00000-0  38245-4 0  9993","TLE_LINE2":"2 49751  53.2208 116.9227 0002707  49.5704 310.5524 15.08837009 30814","GP_ID":"206650036","EPHEMERIS_TYPE":"0","TIME_SYSTEM":"UTC"},{"TLE_LINE2":"2 49752  53.2170 107.1148 0002133  56.2646 303.8549 15.08836473 30940","TLE_LINE1":"1 49752U 21115AE  22173.54304657  .00000889  00000-0  73957-4 0  9996","TIME_SYSTEM":"UTC","EPHEMERIS_TYPE":"0","GP_ID":"206621407","MEAN_MOTION_DDOT":"0.0000000000000","OBJECT_TYPE":"PAYLOAD","NORAD_CAT_ID":"49752","SITE":"AFETR","REV_AT_EPOCH":"3094","OBJECT_ID":"2021-115AE","DECAY_DATE":null,"SEMIMAJOR_AXIS":"6917.891","INCLINATION":"53.2170","PERIOD":"95.438","FILE":"3499789","CLASSIFICATION_TYPE":"U","ECCENTRICITY":"0.00021330","ARG_OF_PERICENTER":"56.2646","LAUNCH_DATE":"2021-12-02","CENTER_NAME":"EARTH","MEAN_MOTION":"15.08836473","OBJECT_NAME":"STARLINK-3209","RCS_SIZE":"LARGE","MEAN_ANOMALY":"303.8549","REF_FRAME":"TEME","ELEMENT_SET_NO":"999","BSTAR":"0.00007395700000","RA_OF_ASC_NODE":"107.1148","MEAN_MOTION_DOT":"0.00000889","APOAPSIS":"541.232","EPOCH":"2022-06-22T13:01:59.223648","COUNTRY_CODE":"US","PERIAPSIS":"538.281","MEAN_ELEMENT_THEORY":"SGP4"},{"SEMIMAJOR_AXIS":"6917.878","DECAY_DATE":null,"OBJECT_ID":"2021-115AF","REV_AT_EPOCH":"3073","SITE":"AFETR","NORAD_CAT_ID":"49753","OBJECT_TYPE":"PAYLOAD","MEAN_MOTION_DDOT":"0.0000000000000","EPHEMERIS_TYPE":"0","GP_ID":"206621644","TIME_SYSTEM":"UTC","TLE_LINE1":"1 49753U 21115AF  22173.06004082  .00001139  00000-0  89652-4 0  9991","TLE_LINE2":"2 49753  53.2192 119.2780 0003027  54.4779 305.6495 15.08840943 30735","MEAN_ELEMENT_THEORY":"SGP4","COUNTRY_CODE":"US","PERIAPSIS":"537.648","EPOCH":"2022-06-22T01:26:27.526848","APOAPSIS":"541.837","MEAN_MOTION_DOT":"0.00001139","RA_OF_ASC_NODE":"119.2780","BSTAR":"0.00008965200000","REF_FRAME":"TEME","ELEMENT_SET_NO":"999","MEAN_ANOMALY":"305.6495","RCS_SIZE":"LARGE","OBJECT_NAME":"STARLINK-3200","CENTER_NAME":"EARTH","MEAN_MOTION":"15.08840943","LAUNCH_DATE":"2021-12-02","ARG_OF_PERICENTER":"54.4779","ECCENTRICITY":"0.00030270","FILE":"3499789","CLASSIFICATION_TYPE":"U","PERIOD":"95.437","INCLINATION":"53.2192"},{"LAUNCH_DATE":"2021-12-02","ARG_OF_PERICENTER":"48.5991","OBJECT_NAME":"STARLINK-3193","RCS_SIZE":"LARGE","CENTER_NAME":"EARTH","MEAN_MOTION":"15.08856436","INCLINATION":"53.2168","PERIOD":"95.437","ECCENTRICITY":"0.00093920","CLASSIFICATION_TYPE":"U","FILE":"3500001","APOAPSIS":"546.192","MEAN_MOTION_DOT":"-0.00003062","MEAN_ELEMENT_THEORY":"SGP4","EPOCH":"2022-06-22T19:14:18.889728","COUNTRY_CODE":"US","PERIAPSIS":"533.198","BSTAR":"-0.00017390000000","RA_OF_ASC_NODE":"105.9365","MEAN_ANOMALY":"311.5807","ELEMENT_SET_NO":"999","REF_FRAME":"TEME","MEAN_MOTION_DDOT":"0.0000000000000","NORAD_CAT_ID":"49754","OBJECT_TYPE":"PAYLOAD","TLE_LINE1":"1 49754U 21115AG  22173.80160752 -.00003062  00000-0 -17390-3 0  9999","TLE_LINE2":"2 49754  53.2168 105.9365 0009392  48.5991 311.5807 15.08856436 30985","GP_ID":"206649286","EPHEMERIS_TYPE":"0","TIME_SYSTEM":"UTC","REV_AT_EPOCH":"3098","DECAY_DATE":null,"SEMIMAJOR_AXIS":"6917.830","OBJECT_ID":"2021-115AG","SITE":"AFETR"}];
